     2.10           G: GLONASS NAV DATA                     RINEX VERSION / TYPE
teqc  2015Jun23                         20210426 02:25:44UTCPGM / RUN BY / DATE
Linux 2.4.21-27.ELsmp|Opteron|gcc -static|Linux x86_64|=+   COMMENT
  2021     4     2    9.313225746155D-09                    CORR TO SYSTEM TIME
                                                            END OF HEADER
20 21  4  3 16 15  0.0-4.658475518227D-05-0.000000000000D+00 5.760000000000D+04
   -7.402459472656D+03-7.402057647705D-01 9.313225746155D-10 0.000000000000D+00
    2.112752978516D+04 1.526341438293D+00-0.000000000000D+00 2.000000000000D+00
    1.228171826172D+04-3.068996429443D+00-9.313225746155D-10 0.000000000000D+00
 6 21  4  3 16 45  0.0 1.955926418304D-04 0.000000000000D+00 5.940000000000D+04
    6.767997558594D+03-1.091376304626D+00 1.862645149231D-09 0.000000000000D+00
    2.009686279297D+04-1.610618591309D+00 0.000000000000D+00-4.000000000000D+00
    1.418909960938D+04 2.798659324646D+00-0.000000000000D+00 0.000000000000D+00
 9 21  4  3 16 45  0.0-1.386832445860D-05 1.818989403546D-12 5.940000000000D+04
   -3.772085937500D+03-3.043849945068D+00-2.793967723846D-09 0.000000000000D+00
    1.157164501953D+04 3.936634063721D-01-0.000000000000D+00-2.000000000000D+00
   -2.241217236328D+04 7.088060379028D-01 9.313225746155D-10 0.000000000000D+00
 7 21  4  3 16 45  0.0-4.255771636963D-05 0.000000000000D+00 5.940000000000D+04
    1.580075878906D+04 3.096952438354D-01 9.313225746155D-10 0.000000000000D+00
    1.993436621094D+04 1.458272933960D-01-0.000000000000D+00 5.000000000000D+00
   -2.152676757812D+03 3.551003456116D+00 1.862645149231D-09 0.000000000000D+00
16 21  4  3 16 45  0.0-1.334212720394D-05-9.094947017729D-13 5.940000000000D+04
   -1.957691796875D+04-1.805791854858D+00-2.793967723846D-09 0.000000000000D+00
    9.237607421875D+03 3.456363677979D-01-9.313225746155D-10-1.000000000000D+00
   -1.341195458984D+04 2.891624450684D+00-9.313225746155D-10 0.000000000000D+00
19 21  4  3 16 45  0.0-1.383293420076D-04-9.094947017729D-13 5.940000000000D+04
   -1.442731054688D+04 9.825124740601D-01-2.793967723846D-09 0.000000000000D+00
    1.631410498047D+04-1.549098968506D+00-9.313225746155D-10 3.000000000000D+00
   -1.328327734375D+04-2.969120979309D+00-0.000000000000D+00 0.000000000000D+00
20 21  4  3 16 45  0.0-4.658568650484D-05-0.000000000000D+00 5.940000000000D+04
   -8.185722167969D+03-1.535415649414D-01 0.000000000000D+00 0.000000000000D+00
    2.333844531250D+04 8.921136856079D-01-0.000000000000D+00 2.000000000000D+00
    6.355324218750D+03-3.473253250122D+00-9.313225746155D-10 0.000000000000D+00
21 21  4  3 16 45  0.0-1.991130411625D-04-2.728484105319D-12 5.961000000000D+04
    4.143074707031D+03-1.093328475952D+00 2.793967723846D-09 0.000000000000D+00
    1.382685742188D+04 2.670341491699D+00 0.000000000000D+00 4.000000000000D+00
    2.102610205078D+04-1.542161941528D+00-9.313225746155D-10 0.000000000000D+00
 9 21  4  3 17 15  0.0-1.386553049088D-05 1.818989403546D-12 6.120000000000D+04
   -8.959568847656D+03-2.675499916077D+00-2.793967723846D-09 0.000000000000D+00
    1.261631054688D+04 7.451419830322D-01-0.000000000000D+00-2.000000000000D+00
   -2.028643701172D+04 1.637605667114D+00 0.000000000000D+00 0.000000000000D+00
 7 21  4  3 17 15  0.0-4.255678504705D-05 0.000000000000D+00 6.120000000000D+04
    1.585614794922D+04-2.778978347778D-01 1.862645149231D-09 0.000000000000D+00
    1.956523144531D+04-5.279493331909D-01-0.000000000000D+00 5.000000000000D+00
    4.239786621094D+03 3.505748748779D+00 9.313225746155D-10 0.000000000000D+00
16 21  4  3 17 15  0.0-1.334398984909D-05-9.094947017729D-13 6.120000000000D+04
   -2.211063525391D+04-9.928569793701D-01-2.793967723846D-09 0.000000000000D+00
    9.935674804688D+03 3.902282714844D-01-0.000000000000D+00-1.000000000000D+00
   -7.753214355469D+03 3.354931831360D+00-1.862645149231D-09 0.000000000000D+00
19 21  4  3 17 15  0.0-1.383321359754D-04-9.094947017729D-13 6.120000000000D+04
   -1.266750000000D+04 9.299860000610D-01-3.725290298462D-09 0.000000000000D+00
    1.283033593750D+04-2.299866676331D+00-0.000000000000D+00 3.000000000000D+00
   -1.804521435547D+04-2.287572860718D+00 0.000000000000D+00 0.000000000000D+00
20 21  4  3 17 15  0.0-4.658661782742D-05-0.000000000000D+00 6.120000000000D+04
   -8.065450683594D+03 2.505655288696D-01-0.000000000000D+00 0.000000000000D+00
    2.422768457031D+04 7.319068908691D-02-0.000000000000D+00 2.000000000000D+00
   -6.094531250000D+01-3.609786033630D+00-9.313225746155D-10 0.000000000000D+00
21 21  4  3 17 15  0.0-1.991186290979D-04-2.728484105319D-12 6.120000000000D+04
    2.677662597656D+03-5.411701202393D-01 1.862645149231D-09 0.000000000000D+00
    1.838111865234D+04 2.340055465698D+00-0.000000000000D+00 4.000000000000D+00
    1.747286621094D+04-2.380276679993D+00-9.313225746155D-10 0.000000000000D+00
 6 21  4  3 17 15  0.0 1.955935731530D-04 0.000000000000D+00 6.168000000000D+04
    4.215700683594D+03-1.741227149963D+00 1.862645149231D-09 0.000000000000D+00
    1.692970703125D+04-1.862170219421D+00-0.000000000000D+00-4.000000000000D+00
    1.861349023438D+04 2.085396766663D+00-9.313225746155D-10 0.000000000000D+00
 9 21  4  3 17 45  0.0-1.386180520058D-05 1.818989403546D-12 6.300000000000D+04
   -1.326422460938D+04-2.075524330139D+00-3.725290298462D-09 0.000000000000D+00
    1.415014892578D+04 9.242897033691D-01 0.000000000000D+00-2.000000000000D+00
   -1.659349511719D+04 2.438909530640D+00-0.000000000000D+00 0.000000000000D+00
 6 21  4  3 17 45  0.0 1.955945044756D-04 0.000000000000D+00 6.300000000000D+04
    5.448706054688D+02-2.315858840942D+00 1.862645149231D-09 0.000000000000D+00
    1.355850927734D+04-1.839478492737D+00-0.000000000000D+00-4.000000000000D+00
    2.159943408203D+04 1.210734367371D+00-1.862645149231D-09 0.000000000000D+00
 7 21  4  3 17 45  0.0-4.255585372448D-05 0.000000000000D+00 6.300000000000D+04
    1.471985058594D+04-9.987449645996D-01 1.862645149231D-09 0.000000000000D+00
    1.815780322266D+04-9.962158203125D-01-0.000000000000D+00 5.000000000000D+00
    1.030561328125D+04 3.190514564514D+00 0.000000000000D+00 0.000000000000D+00
16 21  4  3 17 45  0.0-1.334678381681D-05-9.094947017729D-13 6.300000000000D+04
   -2.312610546875D+04-1.382503509521D-01-2.793967723846D-09 0.000000000000D+00
    1.049469824219D+04 1.901292800903D-01 0.000000000000D+00-1.000000000000D+00
   -1.491004882812D+03 3.557594299316D+00-2.793967723846D-09 0.000000000000D+00
19 21  4  3 17 45  0.0-1.383349299431D-04-9.094947017729D-13 6.300000000000D+04
   -1.121839404297D+04 6.470966339111D-01-3.725290298462D-09 0.000000000000D+00
    8.145333984375D+03-2.866944313049D+00 0.000000000000D+00 3.000000000000D+00
   -2.141218017578D+04-1.429215431213D+00 0.000000000000D+00 0.000000000000D+00
20 21  4  3 17 45  0.0-4.658754914999D-05-0.000000000000D+00 6.300000000000D+04
   -7.429644042969D+03 4.129114151001D-01-1.862645149231D-09 0.000000000000D+00
    2.355397265625D+04-8.251667022705D-01-0.000000000000D+00 2.000000000000D+00
   -6.472500000000D+03-3.468027114868D+00-0.000000000000D+00 0.000000000000D+00
21 21  4  3 17 45  0.0-1.991242170334D-04-2.728484105319D-12 6.300000000000D+04
    2.139961425781D+03-7.986736297607D-02 9.313225746155D-10 0.000000000000D+00
    2.208454882812D+04 1.733735084534D+00-0.000000000000D+00 4.000000000000D+00
    1.256774218750D+04-3.034472465515D+00-9.313225746155D-10 0.000000000000D+00
10 21  4  3 17 45  0.0-6.767362356186D-05-0.000000000000D+00 6.429000000000D+04
    3.761906738281D+03-2.919589996338D+00-1.862645149231D-09 0.000000000000D+00
    1.033533349609D+04 1.180210113525D+00 0.000000000000D+00-7.000000000000D+00
   -2.302658496094D+04 5.949687957764D-02 1.862645149231D-09 0.000000000000D+00
 9 21  4  3 18 15  0.0-1.385807991028D-05 1.818989403546D-12 6.480000000000D+04
   -1.634614208984D+04-1.333996772766D+00-2.793967723846D-09 0.000000000000D+00
    1.580351220703D+04 8.710727691650D-01 0.000000000000D+00-2.000000000000D+00
   -1.162002001953D+04 3.051280975342D+00-9.313225746155D-10 0.000000000000D+00
 7 21  4  3 18 15  0.0-4.255492240191D-05 0.000000000000D+00 6.480000000000D+04
    1.224293505859D+04-1.748844146729D+00 1.862645149231D-09 0.000000000000D+00
    1.613268603516D+04-1.209594726562D+00-0.000000000000D+00 5.000000000000D+00
    1.557808886719D+04 2.629990577698D+00-0.000000000000D+00 0.000000000000D+00
10 21  4  3 18 15  0.0-6.767455488443D-05-0.000000000000D+00 6.480000000000D+04
   -1.246121582031D+03-2.601707458496D+00-2.793967723846D-09 0.000000000000D+00
    1.279377197266D+04 1.523519515991D+00 0.000000000000D+00-7.000000000000D+00
   -2.203157568359D+04 1.039115905762D+00 9.313225746155D-10 0.000000000000D+00
16 21  4  3 18 15  0.0-1.334957778454D-05-9.094947017729D-13 6.480000000000D+04
   -2.265274951172D+04 6.428184509277D-01-1.862645149231D-09 0.000000000000D+00
    1.048245507812D+04-2.379922866821D-01 0.000000000000D+00-1.000000000000D+00
    4.887341308594D+03 3.483033180237D+00-2.793967723846D-09 0.000000000000D+00
20 21  4  3 18 15  0.0-4.658848047256D-05-0.000000000000D+00 6.480000000000D+04
   -6.733921386719D+03 3.185863494873D-01-2.793967723846D-09 0.000000000000D+00
    2.128145654297D+04-1.683054924011D+00 0.000000000000D+00 2.000000000000D+00
   -1.238489355469D+04-3.058710098267D+00-0.000000000000D+00 0.000000000000D+00
21 21  4  3 18 15  0.0-1.991288736463D-04-2.728484105319D-12 6.480000000000D+04
    2.280174804688D+03 1.993341445923D-01 0.000000000000D+00 0.000000000000D+00
    2.449997021484D+04 9.241809844971D-01-0.000000000000D+00 4.000000000000D+00
    6.689958007812D+03-3.453957557678D+00-9.313225746155D-10 0.000000000000D+00
10 21  4  3 18 45  0.0-6.767455488443D-05-0.000000000000D+00 6.660000000000D+04
   -5.470868652344D+03-2.062639236450D+00-2.793967723846D-09 0.000000000000D+00
    1.569558789062D+04 1.660593986511D+00 9.313225746155D-10-7.000000000000D+00
   -1.933331835938D+04 1.939677238464D+00 0.000000000000D+00 0.000000000000D+00
